{
    "week": 293,
    "satellites": [
        {
            "Name": "COSMOS 2545 (760)",
            "Line1": "1 45358U 20018A   24327.19670211 -.00000050  00000+0  00000+0 0  9995",
            "Line2": "2 45358  64.6753 332.4520 0012231 248.9411 110.9563  2.13102594 36477",
            "SatelliteNumber": "45358",
            "Classification": "U",
            "LaunchYear": "20",
            "LaunchNumber": "018",
            "PieceOfLaunch": "A",
            "EpochYear": "24",
            "EpochDay": 327.19670211,
            "FirstDerivativeMeanMotion": -5e-07,
            "SecondDerivativeMeanMotion": "00000+0",
            "BSTAR": "00000+0",
            "SetNumber": "999",
            "Inclination": 64.6753,
            "RAAN": 332.452,
            "Eccentricity": 0.0012231,
            "ArgumentOfPerigee": 248.9411,
            "MeanAnomaly": 110.9563,
            "MeanMotion": 2.13102594,
            "RevolutionNumber": "3647"
        },
        {
            "Name": "COSMOS 2547 (705K)",
            "Line1": "1 46805U 20075A   24325.97547340  .00000001  00000+0  00000+0 0  9991",
            "Line2": "2 46805  64.5959 211.6230 0006420 235.6320 124.3833  2.13102799 31698",
            "SatelliteNumber": "46805",
            "Classification": "U",
            "LaunchYear": "20",
            "LaunchNumber": "075",
            "PieceOfLaunch": "A",
            "EpochYear": "24",
            "EpochDay": 325.9754734,
            "FirstDerivativeMeanMotion": 1e-08,
            "SecondDerivativeMeanMotion": "00000+0",
            "BSTAR": "00000+0",
            "SetNumber": "999",
            "Inclination": 64.5959,
            "RAAN": 211.623,
            "Eccentricity": 0.000642,
            "ArgumentOfPerigee": 235.632,
            "MeanAnomaly": 124.3833,
            "MeanMotion": 2.13102799,
            "RevolutionNumber": "3169"
        },
        {
            "Name": "COSMOS 2557 (706K)",
            "Line1": "1 52984U 22075A   24326.14141067 -.00000055  00000+0  00000+0 0  9994",
            "Line2": "2 52984  64.6065 334.6044 0014092 276.7019  83.1675  2.13102067 18505",
            "SatelliteNumber": "52984",
            "Classification": "U",
            "LaunchYear": "22",
            "LaunchNumber": "075",
            "PieceOfLaunch": "A",
            "EpochYear": "24",
            "EpochDay": 326.14141067,
            "FirstDerivativeMeanMotion": -5.5e-07,
            "SecondDerivativeMeanMotion": "00000+0",
            "BSTAR": "00000+0",
            "SetNumber": "999",
            "Inclination": 64.6065,
            "RAAN": 334.6044,
            "Eccentricity": 0.0014092,
            "ArgumentOfPerigee": 276.7019,
            "MeanAnomaly": 83.1675,
            "MeanMotion": 2.13102067,
            "RevolutionNumber": "1850"
        },
        {
            "Name": "COSMOS 2559 (707K)",
            "Line1": "1 54031U 22130A   24325.14628766 -.00000058  00000+0  00000+0 0  9999",
            "Line2": "2 54031  64.5789 334.7514 0008317 232.2656 127.6888  2.13101359 16457",
            "SatelliteNumber": "54031",
            "Classification": "U",
            "LaunchYear": "22",
            "LaunchNumber": "130",
            "PieceOfLaunch": "A",
            "EpochYear": "24",
            "EpochDay": 325.14628766,
            "FirstDerivativeMeanMotion": -5.8e-07,
            "SecondDerivativeMeanMotion": "00000+0",
            "BSTAR": "00000+0",
            "SetNumber": "999",
            "Inclination": 64.5789,
            "RAAN": 334.7514,
            "Eccentricity": 0.0008317,
            "ArgumentOfPerigee": 232.2656,
            "MeanAnomaly": 127.6888,
            "MeanMotion": 2.13101359,
            "RevolutionNumber": "1645"
        },
        {
            "Name": "COSMOS 2564 (761)",
            "Line1": "1 54377U 22161A   24327.21356028 -.00000005  00000+0  00000+0 0  9997",
            "Line2": "2 54377  64.7372 211.7148 0008481 211.8623 148.1596  2.13102132 15448",
            "SatelliteNumber": "54377",
            "Classification": "U",
            "LaunchYear": "22",
            "LaunchNumber": "161",
            "PieceOfLaunch": "A",
            "EpochYear": "24",
            "EpochDay": 327.21356028,
            "FirstDerivativeMeanMotion": -5e-08,
            "SecondDerivativeMeanMotion": "00000+0",
            "BSTAR": "00000+0",
            "SetNumber": "999",
            "Inclination": 64.7372,
            "RAAN": 211.7148,
            "Eccentricity": 0.0008481,
            "ArgumentOfPerigee": 211.8623,
            "MeanAnomaly": 148.1596,
            "MeanMotion": 2.13102132,
            "RevolutionNumber": "1544"
        },
        {
            "Name": "COSMOS 2569 (703K)",
            "Line1": "1 57517U 23114A   24326.76032364  .00000023  00000+0  00000+0 0  9997",
            "Line2": "2 57517  64.9917  91.9736 0009342 289.7718  70.1159  2.13104083 10060",
            "SatelliteNumber": "57517",
            "Classification": "U",
            "LaunchYear": "23",
            "LaunchNumber": "114",
            "PieceOfLaunch": "A",
            "EpochYear": "24",
            "EpochDay": 326.76032364,
            "FirstDerivativeMeanMotion": 2.3e-07,
            "SecondDerivativeMeanMotion": "00000+0",
            "BSTAR": "00000+0",
            "SetNumber": "999",
            "Inclination": 64.9917,
            "RAAN": 91.9736,
            "Eccentricity": 0.0009342,
            "ArgumentOfPerigee": 289.7718,
            "MeanAnomaly": 70.1159,
            "MeanMotion": 2.13104083,
            "RevolutionNumber": "1006"
        }
    ]
}